{"type": "FeatureCollection", "features": [ {"type": "Feature", "properties": {"norad_id": 66879, "name": "STARLINK-35749", "group": "last-30-days", "lat": -36.76959142150832, "lon": -22.824105994525826, "alt_km": 387.776473092752, "timestamp": "2025-12-25T07:00:32.765032+00:00", "meta": {"OBJECT_NAME": "STARLINK-35749", "OBJECT_ID": "2025-283B", "EPOCH": "2025-12-24T22:00:03.000096", "MEAN_MOTION": 15.63259978, "ECCENTRICITY": 0.00010838, "INCLINATION": 53.1598, "RA_OF_ASC_NODE": 13.0799, "ARG_OF_PERICENTER": 80.4102, "MEAN_ANOMALY": 278.791, "EPHEMERIS_TYPE": 0, "CLASSIFICATION_TYPE": "U", "NORAD_CAT_ID": 66879, "ELEMENT_SET_NO": 999, "REV_AT_EPOCH": 438, "BSTAR": -0.023822948, "MEAN_MOTION_DOT": -0.01961513, "MEAN_MOTION_DDOT": 0}, "tle": {"line1": "1 66879U 25283B   25358.91670139 -.01961513  00000+0 -23823-1 0  9991", "line2": "2 66879  53.1598  13.0799 0001083  80.4102 278.7910 15.63259978  4389"}}, "geometry": {"type": "Point", "coordinates": [-22.824105994525826, -36.76959142150832]}}, {"type": "Feature", "properties": {"norad_id": 66880, "name": "STARLINK-35844", "group": "last-30-days", "lat": -38.02267294597929, "lon": -24.635935826349844, "alt_km": 387.7787266654932, "timestamp": "2025-12-25T07:00:32.765042+00:00", "meta": {"OBJECT_NAME": "STARLINK-35844", "OBJECT_ID": "2025-283C", "EPOCH": "2025-12-24T22:00:03.000096", "MEAN_MOTION": 15.63263645, "ECCENTRICITY": 9.971e-05, "INCLINATION": 53.1599, "RA_OF_ASC_NODE": 13.0849, "ARG_OF_PERICENTER": 87.1606, "MEAN_ANOMALY": 270.1231, "EPHEMERIS_TYPE": 0, "CLASSIFICATION_TYPE": "U", "NORAD_CAT_ID": 66880, "ELEMENT_SET_NO": 999, "REV_AT_EPOCH": 438, "BSTAR": -0.023861479, "MEAN_MOTION_DOT": -0.01964496, "MEAN_MOTION_DDOT": 0}, "tle": {"line1": "1 66880U 25283C   25358.91670139 -.01964496  00000+0 -23861-1 0  9998", "line2": "2 66880  53.1599  13.0849 0000997  87.1606 270.1231 15.63263645  4382"}}, "geometry": {"type": "Point", "coordinates": [-24.635935826349844, -38.02267294597929]}}, {"type": "Feature", "properties": {"norad_id": 66881, "name": "STARLINK-35860", "group": "last-30-days", "lat": -35.48760452259479, "lon": -21.06700304610776, "alt_km": 387.6896180006697, "timestamp": "2025-12-25T07:00:32.765053+00:00", "meta": {"OBJECT_NAME": "STARLINK-35860", "OBJECT_ID": "2025-283D", "EPOCH": "2025-12-24T22:00:03.000096", "MEAN_MOTION": 15.63262806, "ECCENTRICITY": 0.000104, "INCLINATION": 53.16, "RA_OF_ASC_NODE": 13.0759, "ARG_OF_PERICENTER": 83.119, "MEAN_ANOMALY": 277.9965, "EPHEMERIS_TYPE": 0, "CLASSIFICATION_TYPE": "U", "NORAD_CAT_ID": 66881, "ELEMENT_SET_NO": 999, "REV_AT_EPOCH": 438, "BSTAR": -0.02384625, "MEAN_MOTION_DOT": -0.01963365, "MEAN_MOTION_DDOT": 0}, "tle": {"line1": "1 66881U 25283D   25358.91670139 -.01963365  00000+0 -23846-1 0  9996", "line2": "2 66881  53.1600  13.0759 0001040  83.1190 277.9965 15.63262806  4387"}}, "geometry": {"type": "Point", "coordinates": [-21.06700304610776, -35.48760452259479]}}, {"type": "Feature", "properties": {"norad_id": 66882, "name": "STARLINK-35912", "group": "last-30-days", "lat": -34.18099815066942, "lon": -19.36517489457569, "alt_km": 387.57461708426854, "timestamp": "2025-12-25T07:00:32.765063+00:00", "meta": {"OBJECT_NAME": "STARLINK-35912", "OBJECT_ID": "2025-283E", "EPOCH": "2025-12-24T22:00:03.000096", "MEAN_MOTION": 15.63264606, "ECCENTRICITY": 0.00010217, "INCLINATION": 53.1601, "RA_OF_ASC_NODE": 13.0728, "ARG_OF_PERICENTER": 80.8215, "MEAN_ANOMALY": 282.2102, "EPHEMERIS_TYPE": 0, "CLASSIFICATION_TYPE": "U", "NORAD_CAT_ID": 66882, "ELEMENT_SET_NO": 999, "REV_AT_EPOCH": 438, "BSTAR": -0.023874426, "MEAN_MOTION_DOT": -0.01965516, "MEAN_MOTION_DDOT": 0}, "tle": {"line1": "1 66882U 25283E   25358.91670139 -.01965516  00000+0 -23874-1 0  9998", "line2": "2 66882  53.1601  13.0728 0001021  80.8215 282.2102 15.63264606  4388"}}, "geometry": {"type": "Point", "coordinates": [-19.36517489457569, -34.18099815066942]}}, {"type": "Feature", "properties": {"norad_id": 66883, "name": "STARLINK-35947", "group": "last-30-days", "lat": -32.85088898440914, "lon": -17.715297352859057, "alt_km": 387.3819527493006, "timestamp": "2025-12-25T07:00:32.765075+00:00", "meta": {"OBJECT_NAME": "STARLINK-35947", "OBJECT_ID": "2025-283F", "EPOCH": "2025-12-24T22:00:03.000096", "MEAN_MOTION": 15.63263136, "ECCENTRICITY": 9.637e-05, "INCLINATION": 53.1603, "RA_OF_ASC_NODE": 13.0693, "ARG_OF_PERICENTER": 84.7354, "MEAN_ANOMALY": 280.2156, "EPHEMERIS_TYPE": 0, "CLASSIFICATION_TYPE": "U", "NORAD_CAT_ID": 66883, "ELEMENT_SET_NO": 999, "REV_AT_EPOCH": 443, "BSTAR": -0.023849693, "MEAN_MOTION_DOT": -0.01963583, "MEAN_MOTION_DDOT": 0}, "tle": {"line1": "1 66883U 25283F   25358.91670139 -.01963583  00000+0 -23850-1 0  9995", "line2": "2 66883  53.1603  13.0693 0000963  84.7354 280.2156 15.63263136  4433"}}, "geometry": {"type": "Point", "coordinates": [-17.715297352859057, -32.85088898440914]}}, {"type": "Feature", "properties": {"norad_id": 66884, "name": "STARLINK-36057", "group": "last-30-days", "lat": -30.13041524798453, "lon": -14.564219849537356, "alt_km": 387.2833514779395, "timestamp": "2025-12-25T07:00:32.765086+00:00", "meta": {"OBJECT_NAME": "STARLINK-36057", "OBJECT_ID": "2025-283G", "EPOCH": "2025-12-24T22:00:03.000096", "MEAN_MOTION": 15.63261198, "ECCENTRICITY": 0.00010299, "INCLINATION": 53.16, "RA_OF_ASC_NODE": 13.0604, "ARG_OF_PERICENTER": 81.0904, "MEAN_ANOMALY": 287.6968, "EPHEMERIS_TYPE": 0, "CLASSIFICATION_TYPE": "U", "NORAD_CAT_ID": 66884, "ELEMENT_SET_NO": 999, "REV_AT_EPOCH": 438, "BSTAR": -0.023862431, "MEAN_MOTION_DOT": -0.0196442, "MEAN_MOTION_DDOT": 0}, "tle": {"line1": "1 66884U 25283G   25358.91670139 -.01964420  00000+0 -23862-1 0  9990", "line2": "2 66884  53.1600  13.0604 0001029  81.0904 287.6968 15.63261198  4380"}}, "geometry": {"type": "Point", "coordinates": [-14.564219849537356, -30.13041524798453]}}, {"type": "Feature", "properties": {"norad_id": 66885, "name": "STARLINK-35954", "group": "last-30-days", "lat": -31.500800257458447, "lon": -16.11835055284613, "alt_km": 387.43510780096585, "timestamp": "2025-12-25T07:00:32.765102+00:00", "meta": {"OBJECT_NAME": "STARLINK-35954", "OBJECT_ID": "2025-283H", "EPOCH": "2025-12-24T22:00:03.000096", "MEAN_MOTION": 15.63256946, "ECCENTRICITY": 0.00011022, "INCLINATION": 53.1596, "RA_OF_ASC_NODE": 13.0644, "ARG_OF_PERICENTER": 83.0927, "MEAN_ANOMALY": 283.7803, "EPHEMERIS_TYPE": 0, "CLASSIFICATION_TYPE": "U", "NORAD_CAT_ID": 66885, "ELEMENT_SET_NO": 999, "REV_AT_EPOCH": 438, "BSTAR": -0.023804802, "MEAN_MOTION_DOT": -0.01960004, "MEAN_MOTION_DDOT": 0}, "tle": {"line1": "1 66885U 25283H   25358.91670139 -.01960004  00000+0 -23805-1 0  9992", "line2": "2 66885  53.1596  13.0644 0001102  83.0927 283.7803 15.63256946  4388"}}, "geometry": {"type": "Point", "coordinates": [-16.11835055284613, -31.500800257458447]}}, {"type": "Feature", "properties": {"norad_id": 66886, "name": "STARLINK-35900", "group": "last-30-days", "lat": -28.743787462137742, "lon": -13.055608373331834, "alt_km": 387.20320131355675, "timestamp": "2025-12-25T07:00:32.765112+00:00", "meta": {"OBJECT_NAME": "STARLINK-35900", "OBJECT_ID": "2025-283J", "EPOCH": "2025-12-24T22:00:03.000096", "MEAN_MOTION": 15.6326085, "ECCENTRICITY": 0.00011502, "INCLINATION": 53.1598, "RA_OF_ASC_NODE": 13.0562, "ARG_OF_PERICENTER": 79.8377, "MEAN_ANOMALY": 290.867, "EPHEMERIS_TYPE": 0, "CLASSIFICATION_TYPE": "U", "NORAD_CAT_ID": 66886, "ELEMENT_SET_NO": 999, "REV_AT_EPOCH": 438, "BSTAR": -0.023878908, "MEAN_MOTION_DOT": -0.01965675, "MEAN_MOTION_DDOT": 0}, "tle": {"line1": "1 66886U 25283J   25358.91670139 -.01965675  00000+0 -23879-1 0  9993", "line2": "2 66886  53.1598  13.0562 0001150  79.8377 290.8670 15.63260850  4385"}}, "geometry": {"type": "Point", "coordinates": [-13.055608373331834, -28.743787462137742]}}, {"type": "Feature", "properties": {"norad_id": 66887, "name": "STARLINK-35925", "group": "last-30-days", "lat": -27.338047797459776, "lon": -11.583290568351247, "alt_km": 387.060314807095, "timestamp": "2025-12-25T07:00:32.765123+00:00", "meta": {"OBJECT_NAME": "STARLINK-35925", "OBJECT_ID": "2025-283K", "EPOCH": "2025-12-24T22:00:03.000096", "MEAN_MOTION": 15.6326463, "ECCENTRICITY": 0.0001018, "INCLINATION": 53.1599, "RA_OF_ASC_NODE": 13.0525, "ARG_OF_PERICENTER": 82.95, "MEAN_ANOMALY": 289.6669, "EPHEMERIS_TYPE": 0, "CLASSIFICATION_TYPE": "U", "NORAD_CAT_ID": 66887, "ELEMENT_SET_NO": 999, "REV_AT_EPOCH": 438, "BSTAR": -0.02388211, "MEAN_MOTION_DOT": -0.01966072, "MEAN_MOTION_DDOT": 0}, "tle": {"line1": "1 66887U 25283K   25358.91670139 -.01966072  00000+0 -23882-1 0  9990", "line2": "2 66887  53.1599  13.0525 0001018  82.9500 289.6669 15.63264630  4386"}}, "geometry": {"type": "Point", "coordinates": [-11.583290568351247, -27.338047797459776]}}, {"type": "Feature", "properties": {"norad_id": 66888, "name": "STARLINK-35919", "group": "last-30-days", "lat": -25.920874813196715, "lon": -10.152395011739985, "alt_km": 387.12885025696687, "timestamp": "2025-12-25T07:00:32.765133+00:00", "meta": {"OBJECT_NAME": "STARLINK-35919", "OBJECT_ID": "2025-283L", "EPOCH": "2025-12-24T22:00:03.000096", "MEAN_MOTION": 15.63239281, "ECCENTRICITY": 0.00013007, "INCLINATION": 53.1601, "RA_OF_ASC_NODE": 13.0481, "ARG_OF_PERICENTER": 91.7676, "MEAN_ANOMALY": 282.7832, "EPHEMERIS_TYPE": 0, "CLASSIFICATION_TYPE": "U", "NORAD_CAT_ID": 66888, "ELEMENT_SET_NO": 999, "REV_AT_EPOCH": 438, "BSTAR": -0.023553102, "MEAN_MOTION_DOT": -0.01940674, "MEAN_MOTION_DDOT": 0}, "tle": {"line1": "1 66888U 25283L   25358.91670139 -.01940674  00000+0 -23553-1 0  9996", "line2": "2 66888  53.1601  13.0481 0001300  91.7676 282.7832 15.63239281  4388"}}, "geometry": {"type": "Point", "coordinates": [-10.152395011739985, -25.920874813196715]}}]}